OBJECT_NAME,OBJECT_ID,EPOCH,MEAN_MOTION,ECCENTRICITY,INCLINATION,RA_OF_ASC_NODE,ARG_OF_PERICENTER,MEAN_ANOMALY,EPHEMERIS_TYPE,CLASSIFICATION_TYPE,NORAD_CAT_ID,ELEMENT_SET_NO,REV_AT_EPOCH,BSTAR,MEAN_MOTION_DOT,MEAN_MOTION_DDOT
AAUSAT 3,2013-009B,2026-05-12T06:07:06.002112,14.39893773,.00105939,98.3702,316.8684,325.5790,34.4712,0,U,39087,999,69200,.14955583E-3,.427E-5,0
STRAND-1,2013-009E,2026-05-12T09:49:31.980288,14.37141507,.00082315,98.3916,313.5261,346.2220,13.8741,0,U,39090,999,69192,.74217392E-4,.178E-5,0
BRITE-AUSTRIA,2013-009F,2026-05-12T11:26:15.743904,14.36527408,.00099738,98.3988,312.7979,353.9072,6.1992,0,U,39091,999,69192,.51033901E-4,.107E-5,0
UNIBRITE,2013-009G,2026-05-12T11:39:18.622080,14.36398539,.00088293,98.4027,312.9090,351.2072,8.8959,0,U,39092,999,69186,.568031E-4,.124E-5,0
AIST-2 (RS43),2013-015D,2026-05-12T16:09:08.347392,15.25901922,.0020393,64.8707,13.4235,245.9441,113.9555,0,U,39133,999,71848,.13768906E-3,.3351E-4,0
GAOFEN-1,2013-018A,2026-05-12T14:53:48.163776,14.76535611,.00176717,97.9100,205.4085,25.2351,334.9718,0,U,39150,999,70299,.62077026E-4,.383E-5,0
NEE-01 PEGASO,2013-018B,2026-05-12T08:33:00.064800,14.93482578,.00111921,98.1174,275.3376,283.4284,76.5687,0,U,39151,999,70535,.17119737E-3,.1741E-4,0
TURKSAT-3USAT,2013-018C,2026-05-12T05:41:44.017728,14.96190552,.0011421,97.7908,223.2217,215.6006,144.4455,0,U,39152,999,70571,.14759983E-3,.1606E-4,0
CUBEBUG-1 (CAPITAN BETO),2013-018D,2026-05-12T09:53:43.590912,14.97074689,.00104109,98.1634,290.7751,267.0425,92.9604,0,U,39153,999,70571,.11558099E-3,.1269E-4,0
PROBA-V,2013-021A,2026-05-12T04:53:05.544960,14.23589123,.00031699,98.3570,112.5910,227.6316,132.4595,0,U,39159,999,67599,.36757981E-4,.43E-6,0
ESTCUBE 1,2013-021C,2026-05-12T14:19:44.399424,14.81288367,.00095377,97.7316,188.0308,126.2423,233.9673,0,U,39161,999,69975,.12874011E-3,.954E-5,0
ARIRANG-5 (KOMPSAT-5),2013-042A,2026-05-11T23:38:59.723808,15.04563439,.00018387,97.6223,319.1940,258.8276,101.2743,0,U,39227,999,69841,.10097258E-3,.1355E-4,0
GONETS-M 5,2013-048A,2026-05-12T14:46:46.887744,12.42891200,.00158341,82.4860,5.5608,293.3331,66.6082,0,U,39249,999,57446,.61976065E-3,.96E-6,0
GONETS-M 7,2013-048C,2026-05-12T15:50:17.454336,12.42913697,.00166759,82.4927,8.4365,294.4764,65.4577,0,U,39251,999,57442,.81635859E-4,.21E-6,0
FENGYUN 3C,2013-052A,2026-05-12T13:34:25.343904,14.15746492,.00156254,98.4963,108.0809,123.2527,237.0148,0,U,39260,999,65352,.3964982E-4,.37E-6,0
CASSIOPE,2013-055A,2026-05-12T13:38:31.463808,15.22562944,.03011297,80.9125,109.8743,181.8042,178.2138,0,U,39265,999,66224,.2387048E-3,.20943E-3,-.624293E-6
APRIZESAT 7,2013-066A,2026-05-12T14:20:50.937792,14.91480569,.00351082,97.7687,86.3365,331.7218,28.2094,0,U,39416,999,67592,.85609825E-4,.808E-5,0
ZACUBE-1 (TSHEPISOSAT),2013-066B,2026-05-12T03:26:32.725248,15.00904333,.00419841,97.8118,94.2849,14.4700,345.7715,0,U,39417,999,67532,.23293779E-3,.2957E-4,0
APRIZESAT 8,2013-066K,2026-05-12T06:58:04.792800,14.87572956,.00470956,97.8201,80.2666,45.4366,315.0680,0,U,39425,999,67433,.8483651E-4,.729E-5,0
CINEMA-3 (KHUSAT-2),2013-066L,2026-05-12T08:03:06.148512,14.78212560,.0089322,97.8420,45.4643,329.4223,30.1798,0,U,39426,999,66915,.12856946E-3,.939E-5,0
TRITON-1,2013-066M,2026-05-12T15:17:57.160032,14.81545799,.00901549,97.8262,43.2538,351.3055,8.6592,0,U,39427,999,66882,.20801693E-3,.1693E-4,0
DELFI-N3XT,2013-066N,2026-05-12T13:37:22.195200,14.94669576,.00742084,97.8341,52.9219,326.5023,33.1515,0,U,39428,999,66930,.41505833E-3,.469E-4,0
GOMX-1,2013-066Q,2026-05-12T10:25:54.978240,14.69315846,.0128405,97.6515,335.1518,191.7035,168.1181,0,U,39430,999,66466,.17587906E-3,.1126E-4,0
BRITE-PL1 (LEM),2013-066R,2026-05-12T06:34:35.614848,14.51323618,.01914568,97.7918,247.1935,122.7916,239.1886,0,U,39431,999,65872,.1241195E-3,.58E-5,0
ICUBE-1,2013-066S,2026-05-11T21:58:11.619264,15.24890789,.001905,97.5683,117.1624,98.5530,261.7867,0,U,39432,999,67888,.34625E-3,.8583E-4,0
VELOX-PII,2013-066Y,2026-05-12T13:56:21.266016,14.92876524,.00546551,97.8723,83.9164,100.5949,260.1432,0,U,39438,999,67252,.14580387E-3,.1494E-4,0
CUBEBUG-2 (LO-74),2013-066AA,2026-05-12T08:32:20.446944,14.93489993,.0058821,97.8889,81.1965,144.7702,215.7428,0,U,39440,999,67164,.17695404E-3,.1864E-4,0
NEE-02 KRYSAOR,2013-066AB,2026-05-12T06:21:11.313792,14.86481886,.00660017,97.8881,71.7440,186.2135,173.8270,0,U,39441,999,67086,.11292534E-3,.979E-5,0
FUNCUBE-1 (AO-73),2013-066AE,2026-05-12T14:04:00.742080,15.09019237,.00354432,97.8259,103.3063,327.6966,32.2091,0,U,39444,999,67429,.33394434E-3,.529E-4,0
HINCUBE,2013-066AF,2026-05-12T04:32:40.908768,15.07823149,.00325271,97.7946,100.1902,336.2796,23.6930,0,U,39445,999,67410,.34009666E-3,.5203E-4,0
UWE-3,2013-066AG,2026-05-12T07:38:42.504864,14.96717935,.00509034,97.8679,88.1661,79.4188,281.2762,0,U,39446,999,67221,.17488535E-3,.1988E-4,0
SMDC ONE 2.4,2013-072H,2026-05-12T05:40:06.198240,15.17498023,.01397977,120.4877,213.3690,340.0803,19.4850,0,U,39469,999,11237,.23239059E-3,.5626E-4,0
CP8 (IPEX),2013-072K,2026-05-12T02:26:13.990848,15.07653149,.01593233,120.4639,161.4245,323.4841,35.5453,0,U,39471,999,10979,.22306477E-3,.4187E-4,0
COSMOS 2488 (RODNIK-S 7),2013-076A,2026-05-12T14:52:12.932832,12.42904051,.00199466,82.4861,190.8535,169.5809,190.5688,0,U,39483,999,56147,-.1034367E-2,-.133E-5,0
COSMOS 2489 (RODNIK-S 8),2013-076B,2026-05-12T14:15:25.915680,12.42878912,.00217824,82.4898,192.2363,169.8405,190.3119,0,U,39484,999,56152,-.77590378E-3,-.98E-6,0
COSMOS 2490 (RODNIK-S 9),2013-076C,2026-05-12T13:34:51.639744,12.42876541,.00215514,82.4845,190.3371,185.5022,174.5824,0,U,39485,999,56145,-.14280066E-3,-.1E-6,0
AIST-1 (RS41),2013-078C,2026-05-12T13:50:33.729792,14.95971487,.00178078,82.4142,305.3749,40.6571,319.5976,0,U,39492,999,66992,.13218833E-3,.1511E-4,0
KAZEOSAT 1,2014-024A,2026-05-12T13:34:58.861920,14.42066029,.00016004,98.3210,205.8969,91.9769,268.1604,0,U,39731,999,63342,.10797521E-3,.312E-5,0
COSMOS 2496 (RODNIK-S 10),2014-028A,2026-05-12T14:29:41.979840,12.42876771,.00204283,82.4426,131.0198,153.2040,207.0100,0,U,39761,999,54309,-.32377481E-3,-.35E-6,0
COSMOS 2497 (RODNIK-S 11),2014-028B,2026-05-12T13:54:45.086400,12.42892922,.00210873,82.4475,132.7112,148.4031,211.8319,0,U,39762,999,54309,.41380465E-3,.67E-6,0
COSMOS 2498 (RODNIK-S 12),2014-028C,2026-05-12T15:21:57.494592,12.42979511,.00218123,82.4435,131.1758,148.0613,212.1793,0,U,39763,999,54313,.6587361E-3,.101E-5,0
COSMOS 2499 (RS47),2014-028E,2026-05-12T15:20:06.169920,12.82902633,.02325663,82.4472,276.4157,85.1842,277.5773,0,U,39765,999,56046,-.6310412E-5,.12E-6,0
HODOYOSHI-4,2014-033B,2026-05-12T14:20:27.040416,14.88041419,.00250366,97.5461,319.1406,65.1378,295.2439,0,U,40011,999,64351,.83531407E-4,.719E-5,0
UNISAT-6,2014-033C,2026-05-12T08:40:50.626848,14.88031076,.00451945,97.7835,285.7193,184.8429,175.2357,0,U,40012,999,64083,.24119848E-3,.22E-4,0
DEIMOS-2,2014-033D,2026-05-12T14:39:56.896416,14.93625796,.0002572,97.5880,8.3433,85.4045,274.7469,0,U,40013,999,63241,.13337491E-3,.1354E-4,0
BUGSAT-1 (TITA),2014-033E,2026-05-12T13:51:20.981088,15.15212670,.00269395,98.0412,223.0576,303.9882,55.8789,0,U,40014,999,65044,.17417848E-3,.3223E-4,0
SAUDISAT 4,2014-033G,2026-05-12T09:49:48.248544,14.79490200,.00446681,97.7535,279.7926,187.9965,172.0540,0,U,40016,999,64078,.69516777E-4,.476E-5,0
APRIZESAT 9,2014-033J,2026-05-12T15:23:08.918880,14.74171498,.00651449,97.9007,266.7186,315.4618,44.1365,0,U,40018,999,63832,.48213473E-4,.275E-5,0
BRITE-CA1 (TORONTO),2014-033L,2026-05-12T07:09:53.702208,14.72626838,.00793359,97.9687,261.8998,32.7324,327.8764,0,U,40020,999,63693,.76566085E-4,.459E-5,0
DUCHIFAT-1,2014-033M,2026-05-12T03:00:31.313088,15.58226206,.00058006,98.0509,186.4226,189.1310,170.9839,0,U,40021,999,65012,.67126926E-3,.5087E-3,0
NANOSATC-BR1,2014-033Q,2026-05-12T07:40:50.301696,15.30300900,.00019859,98.0757,161.5605,330.4034,29.7092,0,U,40024,999,64849,.32574273E-3,.9463E-4,0
QB50P1,2014-033R,2026-05-12T11:42:26.676000,15.17694861,.00084266,98.0983,141.1463,0.5948,359.5292,0,U,40025,999,64761,.2706414E-3,.5383E-4,0
DTUSAT-2,2014-033W,2026-05-12T05:40:09.450336,15.14538949,.00079891,98.0868,127.6967,11.8322,348.3095,0,U,40030,999,64724,.22197744E-3,.4019E-4,0
QB50P2,2014-033Y,2026-05-12T05:36:46.512288,15.14689804,.0005855,98.0756,126.8919,306.0216,54.0472,0,U,40032,999,64722,.20989362E-3,.3811E-4,0
PERSEUS-M1,2014-033AF,2026-05-12T13:49:51.327264,14.95507462,.00128561,97.9627,76.1318,59.7602,300.4889,0,U,40039,999,64531,.11665105E-3,.1233E-4,0
POLYITAN-1,2014-033AJ,2026-05-12T00:16:46.555680,15.31997831,.00053628,98.0977,154.8860,270.7833,89.2792,0,U,40042,999,64805,.37565615E-3,.11526E-3,0
TIGRISAT,2014-033AK,2026-05-12T08:06:54.165024,14.85005476,.00492238,97.7789,283.1846,190.6690,169.3486,0,U,40043,999,64030,.1733105E-3,.1455E-4,0
AISAT,2014-034B,2026-05-12T13:00:37.254240,15.08123464,.00089843,98.2416,42.3696,355.7804,4.3345,0,U,40054,999,64183,.40985869E-3,.6262E-4,0
CANX-4,2014-034C,2026-05-12T01:53:45.708000,14.81196018,.00138569,98.3172,6.0596,123.8085,236.4448,0,U,40055,999,63918,.73066924E-4,.512E-5,0
CANX-5,2014-034D,2026-05-12T09:58:29.228448,14.81213592,.00138696,98.3172,6.4501,123.0156,237.2390,0,U,40056,999,63004,.77232732E-4,.545E-5,0
VELOX-I,2014-034E,2026-05-12T13:58:33.044160,14.97539472,.00082402,98.2561,35.5714,35.2173,324.9590,0,U,40057,999,64127,.22449472E-3,.2555E-4,0
GONETS-M 10,2014-036C,2026-05-12T13:44:52.315008,12.42944697,.00211714,82.5114,329.8030,218.2510,141.7069,0,U,40063,999,53782,.52891055E-3,.83E-6,0
METEOR-M 2,2014-037A,2026-05-12T14:21:49.245696,14.21450946,.00064834,98.5097,109.6018,130.8738,229.3003,0,U,40069,999,61426,-.63404152E-4,-.181E-5,0
DX1,2014-037C,2026-05-12T15:11:58.325280,14.89869992,.00080174,98.3841,92.1863,37.2371,322.9399,0,U,40071,999,64081,.10656293E-3,.962E-5,0
UKUBE-1,2014-037F,2026-05-12T11:04:02.085600,15.12969549,.00004629,98.4247,131.9986,57.3864,302.7409,0,U,40074,999,64315,.28058662E-3,.4871E-4,0
